NORAD_CAT_ID,OBJECT_NAME,OBJECT_TYPE,EPOCH,MEAN_MOTION,ECCENTRICITY,INCLINATION,RA_OF_ASC_NODE,ARG_OF_PERICENTER,MEAN_ANOMALY,BSTAR,MEAN_MOTION_DOT,MEAN_MOTION_DDOT,TLE_LINE0,TLE_LINE1,TLE_LINE2,SEMIMAJOR_AXIS,PERIOD,APOGEE,PERIGEE,DECAYED
50809.0,STARLINK-3232,PAYLOAD,2024-07-21 12:24:50,15.08835342,0.0001579,53.2179,315.4438,99.632,260.485,-0.00011866,-2.176e-05,0.0,0 STARLINK-3232,1 50809U 22001G   24203.51724565 -.00002176  00000-0 -11866-3 0  9996,2 50809  53.2179 315.4438 0001579  99.6320 260.4850 15.08835342141820,6917.895,95.438,540.852,538.667,0.0
50809.0,STARLINK-3232,PAYLOAD,2024-07-21 14:00:13,15.08833052,0.0001518,53.218,315.1492,84.0819,276.0346,-0.00012671,-2.304e-05,0.0,0 STARLINK-3232,1 50809U 22001G   24203.58348753 -.00002304  00000-0 -12671-3 0  9992,2 50809  53.2180 315.1492 0001518  84.0819 276.0346 15.08833052140551,6917.902,95.438,540.817,538.716,0.0
50809.0,STARLINK-3232,PAYLOAD,2024-07-22 07:29:28,15.08841471,0.0001732,53.2181,311.8803,86.7394,273.3796,0.00028991,4.329e-05,0.0,0 STARLINK-3232,1 50809U 22001G   24204.31212990  .00004329  00000-0  28991-3 0  9996,2 50809  53.2181 311.8803 0001732  86.7394 273.3796 15.08841471140661,6917.876,95.437,540.939,538.543,0.0
50809.0,STARLINK-3232,PAYLOAD,2024-07-23 13:41:47,15.0885169,0.0001734,53.2187,306.2269,99.7389,260.3799,0.00035958,5.441e-05,0.0,0 STARLINK-3232,1 50809U 22001G   24205.57068548  .00005441  00000-0  35958-3 0  9990,2 50809  53.2187 306.2269 0001734  99.7389 260.3799 15.08851690142138,6917.845,95.437,540.909,538.51,0.0
50809.0,STARLINK-3232,PAYLOAD,2024-07-24 10:21:48,15.08834927,0.0001649,53.2178,302.3632,102.1266,257.9911,-5.0284e-05,-1.088e-05,0.0,0 STARLINK-3232,1 50809U 22001G   24206.43181163 -.00001088  00000-0 -50284-4 0  9990,2 50809  53.2178 302.3632 0001649 102.1266 257.9911 15.08834927142263,6917.896,95.438,540.902,538.62,0.0
50809.0,STARLINK-3232,PAYLOAD,2024-07-25 10:12:35,15.08845692,0.0001322,53.2155,297.9021,97.2623,262.8519,0.00017414,2.485e-05,0.0,0 STARLINK-3232,1 50809U 22001G   24207.42540785  .00002485  00000-0  17414-3 0  9996,2 50809  53.2155 297.9021 0001322  97.2623 262.8519 15.08845692142415,6917.863,95.437,540.643,538.813,0.0
50809.0,STARLINK-3232,PAYLOAD,2024-07-25 14:58:44,15.088467,0.0001506,53.2149,297.006,90.6738,269.4427,0.00067311,0.00010443,0.0,0 STARLINK-3232,1 50809U 22001G   24207.62412954  .00010443  00000-0  67311-3 0  9998,2 50809  53.2149 297.0060 0001506  90.6738 269.4427 15.08846700141163,6917.86,95.437,540.767,538.683,0.0
50809.0,STARLINK-3232,PAYLOAD,2024-07-26 10:03:22,15.08839317,0.0001434,53.2149,293.4452,91.5338,268.5818,3.4438e-05,2.6e-06,0.0,0 STARLINK-3232,1 50809U 22001G   24208.41900964  .00000260  00000-0  34438-4 0  9990,2 50809  53.2149 293.4452 0001434  91.5338 268.5818 15.08839317142569,6917.882,95.438,540.74,538.755,0.0
50809.0,STARLINK-3232,PAYLOAD,2024-07-26 14:49:31,15.08842592,0.0001897,53.2157,292.5469,75.0867,285.0335,0.00010446,1.375e-05,0.0,0 STARLINK-3232,1 50809U 22001G   24208.61772991  .00001375  00000-0  10446-3 0  9999,2 50809  53.2157 292.5469 0001897  75.0867 285.0335 15.08842592141312,6917.872,95.437,541.05,538.425,0.0
50809.0,STARLINK-3232,PAYLOAD,2024-07-27 11:29:32,15.08841013,0.0001334,53.2116,288.6813,85.9512,274.1633,1.1914e-05,-9.8e-07,0.0,0 STARLINK-3232,1 50809U 22001G   24209.47884816 -.00000098  00000-0  11914-4 0  9998,2 50809  53.2116 288.6813 0001334  85.9512 274.1633 15.08841013142722,6917.877,95.437,540.665,538.819,0.0
50809.0,STARLINK-3232,PAYLOAD,2024-07-27 13:04:55,15.08843404,0.0001468,53.2145,288.3851,90.6672,269.4488,5.9603e-05,6.61e-06,0.0,0 STARLINK-3232,1 50809U 22001G   24209.54508769  .00000661  00000-0  59603-4 0  9998,2 50809  53.2145 288.3851 0001468  90.6672 269.4488 15.08843404141451,6917.87,95.437,540.751,538.719,0.0
50809.0,STARLINK-3232,PAYLOAD,2024-07-28 14:31:06,15.08839602,0.0001653,53.2151,283.6251,100.3409,259.777,0.00043384,6.623e-05,0.0,0 STARLINK-3232,1 50809U 22001G   24210.60493176  .00006623  00000-0  43384-3 0  9994,2 50809  53.2151 283.6251 0001653 100.3409 259.7770 15.08839602142893,6917.882,95.438,540.89,538.603,0.0
50809.0,STARLINK-3232,PAYLOAD,2024-07-28 22:28:01,15.08841995,0.0001547,53.2133,282.1387,93.518,266.599,0.00017378,2.479e-05,0.0,0 STARLINK-3232,1 50809U 22001G   24210.93612960  .00002479  00000-0  17378-3 0  9993,2 50809  53.2133 282.1387 0001547  93.5180 266.5990 15.08841995141660,6917.874,95.437,540.809,538.669,0.0
50809.0,STARLINK-3232,PAYLOAD,2024-07-29 11:11:06,15.08842693,0.0001629,53.2151,279.7585,101.7693,258.3482,0.00013765,1.904e-05,0.0,0 STARLINK-3232,1 50809U 22001G   24211.46604967  .00001904  00000-0  13765-3 0  9998,2 50809  53.2151 279.7585 0001629 101.7693 258.3482 15.08842693141744,6917.872,95.437,540.864,538.61,0.0
50809.0,STARLINK-3232,PAYLOAD,2024-07-29 15:57:15,15.08845247,0.000165,53.2147,278.8669,100.3196,259.7983,0.00016161,2.285e-05,0.0,0 STARLINK-3232,1 50809U 22001G   24211.66476810  .00002285  00000-0  16161-3 0  9990,2 50809  53.2147 278.8669 0001650 100.3196 259.7983 15.08845247143054,6917.864,95.437,540.871,538.588,0.0
50809.0,STARLINK-3232,PAYLOAD,2024-07-30 11:01:54,15.08836331,0.0001572,53.2162,275.2982,100.1465,259.9705,3.8264e-05,3.21e-06,0.0,0 STARLINK-3232,1 50809U 22001G   24212.45965671  .00000321  00000-0  38264-4 0  9994,2 50809  53.2162 275.2982 0001572 100.1465 259.9705 15.08836331143171,6917.892,95.438,540.844,538.669,0.0
50809.0,STARLINK-3232,PAYLOAD,2024-07-30 14:12:40,15.08837896,0.0001582,53.2163,274.7033,100.069,260.0481,5.117e-05,5.26e-06,0.0,0 STARLINK-3232,1 50809U 22001G   24212.59213589  .00000526  00000-0  51170-4 0  9991,2 50809  53.2163 274.7033 0001582 100.0690 260.0481 15.08837896141914,6917.887,95.438,540.846,538.657,0.0
50809.0,STARLINK-3232,PAYLOAD,2024-07-31 12:28:04,15.08838621,0.0001446,53.2148,270.5434,85.4286,274.6872,7.8205e-05,9.57e-06,0.0,0 STARLINK-3232,1 50809U 22001G   24213.51949749  .00000957  00000-0  78205-4 0  9994,2 50809  53.2148 270.5434 0001446  85.4286 274.6872 15.08838621142050,6917.885,95.438,540.75,538.749,0.0
50809.0,STARLINK-3232,PAYLOAD,2024-08-01 10:43:27,15.08854706,0.0001496,53.2149,266.3809,88.4673,271.649,0.0003132,4.702e-05,0.0,0 STARLINK-3232,1 50809U 22001G   24214.44685152  .00004702  00000-0  31320-3 0  9990,2 50809  53.2149 266.3809 0001496  88.4673 271.6490 15.08854706143470,6917.835,95.437,540.735,538.666,0.0
50809.0,STARLINK-3232,PAYLOAD,2024-08-02 12:09:38,15.08842509,0.0001347,53.2148,261.6223,81.5721,278.5423,2.366e-05,8.9e-07,0.0,0 STARLINK-3232,1 50809U 22001G   24215.50669468  .00000089  00000-0  23660-4 0  9993,2 50809  53.2148 261.6223 0001347  81.5721 278.5423 15.08842509143638,6917.873,95.437,540.67,538.806,0.0
50809.0,STARLINK-3232,PAYLOAD,2024-08-02 20:06:34,15.08840158,0.0001447,53.2153,260.1357,78.0688,282.0467,-9.9945e-06,-4.47e-06,0.0,0 STARLINK-3232,1 50809U 22001G   24215.83789593 -.00000447  00000-0 -99945-5 0  9991,2 50809  53.2153 260.1357 0001447  78.0688 282.0467 15.08840158142400,6917.88,95.438,540.746,538.744,0.0
50809.0,STARLINK-3232,PAYLOAD,2024-08-03 12:00:25,15.08847759,0.0001469,53.2153,257.1604,79.589,280.5268,4.8639e-05,4.86e-06,0.0,0 STARLINK-3232,1 50809U 22001G   24216.50029285  .00000486  00000-0  48639-4 0  9995,2 50809  53.2153 257.1604 0001469  79.5890 280.5268 15.08847759142503,6917.857,95.437,540.738,538.705,0.0
50809.0,STARLINK-3232,PAYLOAD,2024-08-03 19:57:20,15.08846881,0.0001356,53.2146,255.6756,82.2991,277.8156,4.6594e-05,4.54e-06,0.0,0 STARLINK-3232,1 50809U 22001G   24216.83149269  .00000454  00000-0  46594-4 0  9999,2 50809  53.2146 255.6756 0001356  82.2991 277.8156 15.08846881143831,6917.859,95.437,540.662,538.786,0.0
50809.0,STARLINK-3232,PAYLOAD,2024-08-04 11:51:12,15.08849087,0.0001437,53.215,252.7016,80.5825,279.5329,0.00023494,3.454e-05,0.0,0 STARLINK-3232,1 50809U 22001G   24217.49389235  .00003454  00000-0  23494-3 0  9997,2 50809  53.2150 252.7016 0001437  80.5825 279.5329 15.08849087142651,6917.853,95.437,540.712,538.724,0.0
50809.0,STARLINK-3232,PAYLOAD,2024-08-04 19:48:07,15.08850162,0.0001329,53.2145,251.2127,85.1597,274.9546,0.00023235,3.413e-05,0.0,0 STARLINK-3232,1 50809U 22001G   24217.82509090  .00003413  00000-0  23235-3 0  9995,2 50809  53.2145 251.2127 0001329  85.1597 274.9546 15.08850162142701,6917.849,95.437,540.634,538.795,0.0
50809.0,STARLINK-3232,PAYLOAD,2024-08-05 19:38:54,15.08842922,0.0001214,53.215,246.7525,91.9923,268.1208,7.099e-05,8.42e-06,0.0,0 STARLINK-3232,1 50809U 22001G   24218.81869182  .00000842  00000-0  70990-4 0  9990,2 50809  53.2150 246.7525 0001214  91.9923 268.1208 15.08842922144133,6917.871,95.437,540.576,538.897,0.0
50809.0,STARLINK-3232,PAYLOAD,2024-08-06 05:11:14,15.08833254,0.0001866,53.216,244.9648,113.4721,246.6467,-5.8994e-05,-1.227e-05,0.0,0 STARLINK-3232,1 50809U 22001G   24219.21613904 -.00001227  00000-0 -58994-4 0  9994,2 50809  53.2160 244.9648 0001866 113.4721 246.6467 15.08833254144191,6917.901,95.438,541.057,538.475,0.0
50809.0,STARLINK-3232,PAYLOAD,2024-08-06 06:46:37,15.08832151,0.0001802,53.2164,244.6691,110.3482,249.7704,-7.3524e-05,-1.458e-05,0.0,0 STARLINK-3232,1 50809U 22001G   24219.28238032 -.00001458  00000-0 -73524-4 0  9998,2 50809  53.2164 244.6691 0001802 110.3482 249.7704 15.08832151142922,6917.904,95.438,541.016,538.523,0.0
50809.0,STARLINK-3232,PAYLOAD,2024-08-07 06:37:24,15.08838016,0.0001547,53.2173,240.2133,94.8727,265.2441,5.5312e-05,5.92e-06,0.0,0 STARLINK-3232,1 50809U 22001G   24220.27598272  .00000592  00000-0  55312-4 0  9995,2 50809  53.2173 240.2133 0001547  94.8727 265.2441 15.08838016144355,6917.886,95.438,540.822,538.681,0.0
50809.0,STARLINK-3232,PAYLOAD,2024-08-08 08:03:34,15.08845002,0.0001412,53.2158,235.4546,99.4897,260.6255,0.00027564,4.102e-05,0.0,0 STARLINK-3232,1 50809U 22001G   24221.33581845  .00004102  00000-0  27564-3 0  9999,2 50809  53.2158 235.4546 0001412  99.4897 260.6255 15.08845002143233,6917.865,95.437,540.707,538.753,0.0
